ONEWEB-0208             
1 48243U 21031AK  24202.14941316  .00001843  00000+0  49360-2 0  9996
2 48243  87.8947  68.3670 0001894  80.8456 279.2888 13.14507137156737
ONEWEB-0200             
1 48244U 21031AL  24201.88457133 -.00000116  00000+0 -34628-3 0  9992
2 48244  87.8935  68.4166 0001532  79.9389 280.1914 13.14503825156628
ONEWEB-0217             
1 48245U 21031AM  24201.90042978 -.00000151  00000+0 -44120-3 0  9990
2 48245  87.8935  68.3980 0001419  78.1725 281.9564 13.14503209156571
ONEWEB-0211             
1 48767U 21045A   24201.80143851 -.00000026  00000+0 -10295-3 0  9992
2 48767  87.9016  37.9526 0001764  83.8154 276.3177 13.15548480152723
ONEWEB-0223             
1 48768U 21045B   24201.82361241  .00000028  00000+0  40403-4 0  9995
2 48768  87.9017  37.9563 0001721  64.0695 296.0613 13.15549549152710
ONEWEB-0230             
1 48769U 21045C   24202.09932652 -.00000005  00000+0 -47864-4 0  9991
2 48769  87.9018  37.9720 0001912  84.6940 275.4408 13.15548337154124
ONEWEB-0237             
1 48770U 21045D   24201.93611297  .00000127  00000+0  30245-3 0  9991
2 48770  87.9025  37.9377 0001722  72.7316 287.4003 13.15550480152715
ONEWEB-0235             
1 48771U 21045E   24201.83471253  .00000099  00000+0  23003-3 0  9999
2 48771  87.9014  37.9651 0001864  62.7382 297.3938 13.15547858152697
ONEWEB-0242             
1 48772U 21045F   24201.82837496  .00000099  00000+0  22985-3 0  9992
2 48772  87.9014  37.9545 0001873  80.2655 279.8686 13.15547996152731
ONEWEB-0241             
1 48773U 21045G   24201.81569378 -.00000043  00000+0 -14953-3 0  9990
2 48773  87.9024  38.0070 0001451  76.3296 283.7996 13.15548614152643
ONEWEB-0243             
1 48774U 21045H   24201.92345286  .00000145  00000+0  35210-3 0  9993
2 48774  87.9025  37.9450 0001850  67.6431 292.4895 13.15548265152683
ONEWEB-0222             
1 48775U 21045J   24201.90681304  .00000049  00000+0  95268-4 0  9999
2 48775  87.9012  37.9484 0001593  78.4660 281.6649 13.15548191152725
ONEWEB-0244             
1 48776U 21045K   24201.93294451  .00000135  00000+0  32516-3 0  9998
2 48776  87.9012  37.9255 0001918  81.7783 278.3565 13.15549756153297
ONEWEB-0247             
1 48777U 21045L   24201.92978396  .00000149  00000+0  36108-3 0  9991
2 48777  87.9021  37.9695 0002118  55.9647 304.1684 13.15547738152737
ONEWEB-0245             
1 48778U 21045M   24201.92502783  .00000182  00000+0  44909-3 0  9990
2 48778  87.9014  37.9580 0001528  83.9253 276.2051 13.15548528152703
ONEWEB-0229             
1 48779U 21045N   24202.07239003  .00000145  00000+0  35135-3 0  9990
2 48779  87.9015  37.9227 0001857  81.5196 278.6144 13.15549378153881
ONEWEB-0228             
1 48780U 21045P   24201.94666807 -.00000061  00000+0 -19769-3 0  9997
2 48780  87.9014  37.9272 0001786  82.9828 277.1505 13.15070567152658
ONEWEB-0232             
1 48781U 21045Q   24202.08032440  .00000119  00000+0  28312-3 0  9990
2 48781  87.9009  37.9156 0001798  82.6323 277.5012 13.15548415154116
ONEWEB-0231             
1 48782U 21045R   24201.90601677  .00000132  00000+0  31572-3 0  9992
2 48782  87.9022  37.9849 0001775  76.9741 283.1587 13.15548386152661
ONEWEB-0234             
1 48783U 21045S   24202.07793616  .00000189  00000+0  46803-3 0  9992
2 48783  87.9015  37.9075 0001555 133.3718 226.7542 13.15548098153950
ONEWEB-0238             
1 48784U 21045T   24201.80382916 -.00000083  00000+0 -25472-3 0  9994
2 48784  87.9014  37.9795 0001742  91.3580 268.7750 13.15544927152680
ONEWEB-0240             
1 48785U 21045U   24201.81332250 -.00000057  00000+0 -18531-3 0  9991
2 48785  87.9014  37.9449 0001480  76.1962 283.9333 13.15547707152710
ONEWEB-0246             
1 48786U 21045V   24201.80777478 -.00000031  00000+0 -11531-3 0  9991
2 48786  87.9017  37.9511 0001903  81.9832 278.1514 13.15547461152583
ONEWEB-0210             
1 48787U 21045W   24202.08665337  .00000123  00000+0  29163-3 0  9993
2 48787  87.9015  37.9003 0002221  63.9007 296.2352 13.15548126153790
ONEWEB-0214             
1 48788U 21045X   24201.79192974  .00000016  00000+0  92958-5 0  9998
2 48788  87.9016  37.9477 0002249  73.8915 286.2463 13.15548505152595
ONEWEB-0221             
1 48789U 21045Y   24202.10248884 -.00000052  00000+0 -17099-3 0  9990
2 48789  87.9018  37.9046 0001641  79.0492 281.0822 13.15550107153867
ONEWEB-0213             
1 48790U 21045Z   24201.93928644  .00000046  00000+0  87743-4 0  9996
2 48790  87.9017  37.9504 0001707  73.3324 286.7994 13.15548477152768
ONEWEB-0212             
1 48791U 21045AA  24201.91631567  .00000146  00000+0  35246-3 0  9991
2 48791  87.9017  37.9382 0001732  89.0100 271.1229 13.15547659152756
ONEWEB-0227             
1 48792U 21045AB  24201.91552305  .00000200  00000+0  49727-3 0  9994
2 48792  87.9016  37.9536 0001677  81.6736 278.4585 13.15548587152709
ONEWEB-0226             
1 48793U 21045AC  24201.90918526  .00000162  00000+0  39633-3 0  9997
2 48793  87.9015  37.9612 0001935  70.4684 289.6655 13.15548429152672
ONEWEB-0224             
1 48794U 21045AD  24202.10090848 -.00000128  00000+0 -37466-3 0  9995
2 48794  87.9022  37.9444 0000711  79.1722 280.9489 13.15549706153741
ONEWEB-0233             
1 48795U 21045AE  24201.80223960 -.00002910  00000+0 -77627-2 0  9998
2 48795  87.9018  38.0194 0001267  75.0593 285.0678 13.15569916152604
ONEWEB-0190             
1 48796U 21045AF  24202.09298858  .00000065  00000+0  13889-3 0  9997
2 48796  87.9020  37.9213 0001824  53.6854 306.4445 13.15549109153837
ONEWEB-0236             
1 48797U 21045AG  24201.80618999 -.00000015  00000+0 -72995-4 0  9999
2 48797  87.9025  37.9732 0001658  84.5434 275.5885 13.15548531152562
ONEWEB-0248             
1 48798U 21045AH  24201.81886493 -.00000021  00000+0 -89294-4 0  9994
2 48798  87.9014  37.9585 0001210  65.3092 294.8164 13.15547446152724
ONEWEB-0225             
1 48799U 21045AJ  24201.91710578  .00000279  00000+0  70736-3 0  9999
2 48799  87.9019  37.9527 0001652  71.2300 288.9009 13.15549022152740
ONEWEB-0215             
1 48800U 21045AK  24201.81093962 -.00000071  00000+0 -22316-3 0  9995
2 48800  87.9014  37.9460 0001426  55.6005 304.5260 13.15548470152606
ONEWEB-0216             
1 48801U 21045AL  24201.82045098 -.00000041  00000+0 -14245-3 0  9993
2 48801  87.9013  37.9853 0002045  82.0607 278.0755 13.15546999152611
ONEWEB-0239             
1 48802U 21045AM  24201.59702974  .00000046  00000+0  88153-4 0  9994
2 48802  87.9023  38.0085 0001176  55.6839 304.4402 13.15548213153760
ONEWEB-0249             
1 48967U 21060A   24201.93199553  .00000026  00000+0  33284-4 0  9997
2 48967  87.9113   7.5883 0001813  92.5061 267.6277 13.16593960147868
ONEWEB-0250             
1 48968U 21060B   24202.16381603  .00030581  00000+0  79292-1 0  9998
2 48968  87.9112   7.5247 0001508  85.9812 274.1491 13.16939495149166
ONEWEB-0252             
1 48970U 21060D   24201.88766681  .00000027  00000+0  36765-4 0  9995
2 48970  87.9113   7.5900 0001927  88.2673 271.8678 13.16594180147901
ONEWEB-0253             
1 48971U 21060E   24201.87658335 -.00000038  00000+0 -13392-3 0  9995
2 48971  87.9111   7.6038 0001730  81.6779 278.4548 13.16594275147835
ONEWEB-0254             
1 48972U 21060F   24201.88608437  .00000004  00000+0 -24335-4 0  9997
2 48972  87.9112   7.5800 0001701  82.0567 278.0757 13.16594596147835
ONEWEB-0255             
1 48973U 21060G   24202.22806297  .00000106  00000+0  24458-3 0  9998
2 48973  87.9112   7.5468 0001743  92.9892 267.1438 13.16593492149249
ONEWEB-0256             
1 48974U 21060H   24201.95019185 -.00000126  00000+0 -36400-3 0  9994
2 48974  87.9113   7.6058 0001977  92.6422 267.4935 13.16595654147887
ONEWEB-0257             
1 48975U 21060J   24201.90665438  .00000093  00000+0  21089-3 0  9996
2 48975  87.9111   7.5847 0001916  88.0849 272.0502 13.16592638147832
ONEWEB-0258             
1 48976U 21060K   24201.90822819  .00000078  00000+0  16936-3 0  9993
2 48976  87.9111   7.6128 0001728  93.2653 266.8676 13.16596573147844
ONEWEB-0259             
1 48977U 21060L   24201.90188934 -.00000269  00000+0 -73813-3 0  9998
2 48977  87.9111   7.5987 0001519  90.6884 269.4421 13.16594451147875
ONEWEB-0260             
1 48978U 21060M   24201.89320279  .00000038  00000+0  66543-4 0  9992
2 48978  87.9112   7.6292 0002372  85.3675 274.7727 13.16595988149139
ONEWEB-0261             
1 48979U 21060N   24201.93832867  .00000003  00000+0 -24884-4 0  9994
2 48979  87.9114   7.6148 0001787  72.1732 287.9593 13.16594421147911
ONEWEB-0262             
1 48980U 21060P   24201.91933011  .00000082  00000+0  17987-3 0  9998
2 48980  87.9110   7.5820 0001346  84.3647 275.7637 13.16594899147874
ONEWEB-0263             
1 48981U 21060Q   24201.87499819 -.00000034  00000+0 -12163-3 0  9997
2 48981  87.9115   7.6076 0001607  76.8368 283.2942 13.16593675147830
ONEWEB-0264             
1 48982U 21060R   24201.91220642  .00000128  00000+0  30177-3 0  9996
2 48982  87.9113   7.6118 0001786  89.7216 270.4120 13.16595773147847
ONEWEB-0266             
1 48984U 21060T   24201.93357871  .00000010  00000+0 -61294-5 0  9992
2 48984  87.9111   7.5843 0001736  94.4190 265.7140 13.16594000147830
ONEWEB-0267             
1 48985U 21060U   24202.17265301  .00000059  00000+0  12140-3 0  9992
2 48985  87.9111   7.5381 0001832  79.3166 280.8172 13.16594675149169
ONEWEB-0268             
1 48986U 21060V   24201.91298971  .00000098  00000+0  22160-3 0  9999
2 48986  87.9112   7.5961 0001893  89.6776 270.4572 13.16594821148108
ONEWEB-0269             
1 48987U 21060W   24201.89400024  .00000067  00000+0  14259-3 0  9997
2 48987  87.9115   7.6262 0001890  94.2772 265.8575 13.16594620147873
ONEWEB-0270             
1 48988U 21060X   24201.91141534  .00000087  00000+0  19527-3 0  9994
2 48988  87.9110   7.6043 0001507  74.6185 285.5112 13.16594165147916
